TDRS 3                  
1 19548U 88091B   22359.29596345 -.00000296  00000+0  00000+0 0  9993
2 19548  13.5753 349.8469 0038994 331.3541 190.2734  1.00276688112636
HST                     
1 20580U 90037B   22358.67259042  .00003212  00000+0  17441-3 0  9996
2 20580  28.4715 347.6342 0002238 290.0394 233.2894 15.11472577595016
TDRS 5                  
1 21639U 91054B   22359.23501616  .00000086  00000+0  00000+0 0  9997
2 21639  14.2224   3.1653 0025556 349.7236  17.8769  1.00266509114972
TDRS 6                  
1 22314U 93003B   22359.44600507 -.00000294  00000+0  00000+0 0  9998
2 22314  14.1423   6.4244 0007016 142.5784  59.6436  1.00271073109648
TDRS 7                  
1 23613U 95035B   22358.86510541 -.00000198  00000+0  00000+0 0  9994
2 23613  13.9042 357.1348 0024286  50.5215  81.9958  1.00271284100519
ISS (ZARYA)             
1 25544U 98067A   22359.63206024  .00010592  00000+0  19599-3 0  9996
2 25544  51.6429 108.2088 0005655 187.2695 302.8402 15.49598675374872
LANDSAT 7               
1 25682U 99020A   22359.39182588  .00000414  00000+0  95734-4 0  9998
2 25682  97.9551  40.0125 0001107  93.1858 266.9481 14.59866347260429
TERRA                   
1 25994U 99068A   22359.50206551  .00000376  00000+0  89699-4 0  9996
2 25994  98.1177  67.0277 0000585 204.3891 269.5716 14.58950341224451
TDRS 8                  
1 26388U 00034A   22358.86471706 -.00000231  00000+0  00000+0 0  9998
2 26388  10.6674  41.2334 0018937 330.4066 122.3447  1.00267926 82444
TIMED                   
1 26998U 01055B   22358.87598179  .00001131  00000+0  12401-3 0  9995
2 26998  74.0723 260.1880 0000565 244.1708 115.9415 14.89033932141347
TDRS 9                  
1 27389U 02011A   22358.53878878 -.00000283  00000+0  00000+0 0  9999
2 27389   9.4238  59.0844 0026811 294.3555 231.2613  1.00267070 77700
AQUA                    
1 27424U 02022A   22359.50213025  .00000708  00000+0  16572-3 0  9992
2 27424  98.2692 299.7847 0001442  51.3886  55.8638 14.57533027 98059
TDRS 10                 
1 27566U 02055A   22358.80402148  .00000094  00000+0  00000+0 0  9996
2 27566   8.5512  48.8827 0006228 311.6964 211.2079  1.00278790 73482
SORCE                   
1 27651U 03004A   22359.33338943  .00001633  00000+0  17743-3 0  9992
2 27651  39.9942 231.2449 0022057  12.0553 348.0761 14.90553684 81571
AURA                    
1 28376U 04026A   22358.84861286  .00000735  00000+0  17328-3 0  9999
2 28376  98.2313 299.6245 0001470  85.6919 274.4448 14.57124760980952
SWIFT                   
1 28485U 04047A   22359.15447121  .00005047  00000+0  29042-3 0  9993
2 28485  20.5582  50.3818 0010170 196.4690 163.5415 15.07856368992431
THEMIS A                
1 30580U 07004A   22358.96036576 -.00000164  00000+0 -36508-1 0  9994
2 30580  12.5372 324.7527 8355831 205.6041 104.8012  0.87833124 54808
THEMIS D                
1 30797U 07004D   22358.82587845 -.00000091  00000+0  00000+0 0  9993
2 30797   8.4722 312.7155 8307288 221.0060  74.6635  0.87835503 29913
THEMIS E                
1 30798U 07004E   22359.11099868 -.00000101  00000+0  00000+0 0  9992
2 30798   9.6600 328.9005 8303603 206.7834 156.2895  0.87859730 54743
AIM                     
1 31304U 07015A   22359.06975552  .00011915  00000+0  53295-3 0  9997
2 31304  97.8624 285.8473 0006214  78.4619 281.7313 15.21452750860139
FGRST (GLAST)           
1 33053U 08029A   22359.17282527  .00002289  00000+0  11003-3 0  9996
2 33053  25.5837 306.1279 0011544 229.9266 130.0258 15.12832363802828
WISE                    
1 36119U 09071A   22359.09448209  .00008239  00000+0  23459-3 0  9991
2 36119  97.2186  29.8056 0002367  26.3582 333.7782 15.36355506724767
TDRS 11                 
1 39070U 13004A   22359.23370869  .00000091  00000+0  00000+0 0  9994
2 39070   2.7871 351.9801 0003867  47.1232 324.5528  1.00278309 36251
TDRS 12                 
1 39504U 14004A   22359.47541733 -.00000261  00000+0  00000+0 0  9993
2 39504   3.7160 350.9355 0001871 254.4996 338.5972  1.00264959 32712
GPM-CORE                
1 39574U 14009C   22359.26806617  .00018660  00000+0  27292-3 0  9994
2 39574  64.9987 258.8191 0010120 262.9163  97.0833 15.55646943501307
MMS 1                   
1 40482U 15011A   22352.22810934 -.00000146  00000+0  00000+0 0  9999
2 40482  29.8011  90.0094 8901285  69.5007 203.2879  0.28521590 13820
MMS 2                   
1 40483U 15011B   22356.24325943 -.00000671  00000+0  00000+0 0  9990
2 40483  29.7312  89.5017 8899830  70.0074 255.4814  0.28536623 13893
MMS 3                   
1 40484U 15011C   22357.04893628 -.00000803  00000+0  00000+0 0  9997
2 40484  29.7219  89.3590 8899459  70.1364 338.2281  0.28525165 13576
MMS 4                   
1 40485U 15011D   22352.22718315 -.00000146  00000+0  00000+0 0  9992
2 40485  29.7863  89.9721 8902304  69.5319 203.1963  0.28523493 13771
TDRS 13                 
1 42915U 17047A   22359.19448442 -.00000089  00000+0  00000+0 0  9993
2 42915   4.2186 335.5181 0013265 115.1895  61.4631  1.00269786 19647
JPSS-1                  
1 43013U 17073A   22359.51818907  .00000079  00000+0  58162-4 0  9990
2 43013  98.7368 295.2281 0000828 115.2388 244.8874 14.19538452264336
